[{"OBJECT_NAME":"STARLINK-2634","OBJECT_ID":"2021-040T","EPOCH":"2026-03-09T21:39:54.086976","MEAN_MOTION":15.30209502,"ECCENTRICITY":0.00012058,"INCLINATION":53.16,"RA_OF_ASC_NODE":177.1427,"ARG_OF_PERICENTER":73.806,"MEAN_ANOMALY":286.3073,"EPHEMERIS_TYPE":0,"CLASSIFICATION_TYPE":"U","NORAD_CAT_ID":48445,"ELEMENT_SET_NO":999,"REV_AT_EPOCH":26671,"BSTAR":0.00026697441,"MEAN_MOTION_DOT":7.558e-5,"MEAN_MOTION_DDOT":0},{"OBJECT_NAME":"COSMOS 1869","OBJECT_ID":"1987-062A","EPOCH":"2026-03-09T20:30:29.271744","MEAN_MOTION":15.35392408,"ECCENTRICITY":0.00185772,"INCLINATION":82.5127,"RA_OF_ASC_NODE":201.6716,"ARG_OF_PERICENTER":61.4986,"MEAN_ANOMALY":298.8125,"EPHEMERIS_TYPE":0,"CLASSIFICATION_TYPE":"U","NORAD_CAT_ID":18214,"ELEMENT_SET_NO":999,"REV_AT_EPOCH":8931,"BSTAR":0.00042037944,"MEAN_MOTION_DOT":0.00014573,"MEAN_MOTION_DDOT":0}]
